IRIDIUM 132             
1 42961U 17061G   25077.42410382  .00000888  00000+0  30998-3 0  9997
2 42961  86.4001 215.6576 0001953  91.2475 268.8945 14.34220605389493
IRIDIUM 136             
1 42962U 17061H   25077.45581766  .00000614  00000+0  21217-3 0  9997
2 42962  86.4003 215.6489 0002284  85.6458 274.4999 14.34217108389514
IRIDIUM 139             
1 42963U 17061J   25077.46215898  .00000081  00000+0  21947-4 0  9998
2 42963  86.4003 215.7010 0001933  86.7842 273.3575 14.34216030389527
IRIDIUM 125             
1 42964U 17061K   25077.44947494  .00000081  00000+0  21771-4 0  9996
2 42964  86.4004 215.7583 0002545  86.4951 273.6536 14.34215430389536
IRIDIUM 135             
1 43070U 17083A   25077.56313798  .00000352  00000+0  11868-3 0  9992
2 43070  86.4016 152.4887 0002198 102.9927 257.1514 14.34217788378846
IRIDIUM 138             
1 43071U 17083B   25077.58851058  .00000033  00000+0  47425-5 0  9997
2 43071  86.4005 152.1614 0002888  96.9789 263.1735 14.34216597378832
